STARLINK-1454
1 45671U 20035Q   26092.91668981  .00153056  00000+0  21212-2 0  9999
2 45671  53.0479 295.9971 0006126 163.5812  62.9426 15.56055264  5852
